NORAD_CAT_ID,OBJECT_NAME,OBJECT_TYPE,EPOCH,MEAN_MOTION,ECCENTRICITY,INCLINATION,RA_OF_ASC_NODE,ARG_OF_PERICENTER,MEAN_ANOMALY,BSTAR,MEAN_MOTION_DOT,MEAN_MOTION_DDOT,TLE_LINE0,TLE_LINE1,TLE_LINE2,SEMIMAJOR_AXIS,PERIOD,APOGEE,PERIGEE,DECAYED
49754.0,STARLINK-3193,PAYLOAD,2022-05-31 21:01:39,15.08836638,0.0008732,53.2147,204.3691,351.7879,8.2969,3.2245e-05,2.22e-06,0.0,0 STARLINK-3193,1 49754U 21115AG  22151.87614791  .00000222  00000-0  32245-4 0  9999,2 49754  53.2147 204.3691 0008732 351.7879   8.2969 15.08836638 27672,6917.891,95.438,545.7959999999998,533.715,0.0
49754.0,STARLINK-3193,PAYLOAD,2022-06-01 06:00:00,15.08864197,0.0008682,53.2121,202.6909,351.68800000000016,240.251,-0.0011188,-0.0001808,0.0,0 STARLINK-3193,1 49754U 21115AG  22152.25001157 -.00018080  00000-0 -11188-2 0  9992,2 49754  53.2121 202.6909 0008682 351.6880 240.2510 15.08864197 28843,6917.806,95.436,545.677,533.665,0.0
49754.0,STARLINK-3193,PAYLOAD,2022-06-01 20:00:01,15.08862496,0.0008783999999999,53.2121,200.072,352.705,169.555,-0.0034967,-0.000556,0.0,0 STARLINK-3193,1 49754U 21115AG  22152.83334491 -.00055600  00000-0 -34967-2 0  9995,2 49754  53.2121 200.0720 0008784 352.7050 169.5550 15.08862496  1309,6917.812,95.436,545.753,533.6,0.0
49754.0,STARLINK-3193,PAYLOAD,2022-06-03 03:04:45,15.08840629,0.0008756,53.215,194.2578,357.4844,2.6102,-4.0434e-05,-9.35e-06,0.0,0 STARLINK-3193,1 49754U 21115AG  22154.12830769 -.00000935  00000-0 -40434-4 0  9997,2 49754  53.2150 194.2578 0008756 357.4844   2.6102 15.08840629 29122,6917.878000000002,95.438,545.8009999999998,533.686,0.0
49754.0,STARLINK-3193,PAYLOAD,2022-06-03 11:01:41,15.08843774,0.0008806,53.2149,192.7713,358.2222,1.8738,-2.6441e-05,-7.13e-06,0.0,0 STARLINK-3193,1 49754U 21115AG  22154.45950468 -.00000713  00000-0 -26441-4 0  9998,2 49754  53.2149 192.7713 0008806 358.2222   1.8738 15.08843774 28061,6917.869000000002,95.437,545.826,533.6419999999998,0.0
49754.0,STARLINK-3193,PAYLOAD,2022-06-04 09:17:04,15.08841308,0.0008961,53.2138,188.6074,359.4992,0.5989,6.3285e-05,7.17e-06,0.0,0 STARLINK-3193,1 49754U 21115AG  22155.38686114  .00000717  00000-0  63285-4 0  9994,2 49754  53.2138 188.6074 0008961 359.4992   0.5989 15.08841308 29316,6917.876,95.437,545.94,533.5419999999998,0.0
49754.0,STARLINK-3193,PAYLOAD,2022-06-05 22:00:00,15.08803818,0.0008837999999999,53.2123,181.7393,3.3237,30.976,0.0025901,0.00041165,0.0,0 STARLINK-3193,1 49754U 21115AG  22156.91667824  .00041165  00000-0  25901-2 0  9994,2 49754  53.2123 181.7393 0008838   3.3237  30.9760 15.08803818 29541,6917.991,95.44,545.97,533.742,0.0
49754.0,STARLINK-3193,PAYLOAD,2022-06-06 14:00:01,15.08823256,0.0009162,53.212,178.7482,5.1022,52.3492,0.00078151,0.00012174,0.0,0 STARLINK-3193,1 49754U 21115AG  22157.58334491  .00012174  00000-0  78151-3 0  9993,2 49754  53.2120 178.7482 0009162   5.1022  52.3492 15.08823256 29645,6917.932,95.439,546.135,533.4580000000002,0.0
49754.0,STARLINK-3193,PAYLOAD,2022-06-06 20:00:01,15.08820461,0.0008968,53.2123,177.6244,6.0124,330.1302,0.00064605,0.00010009,0.0,0 STARLINK-3193,1 49754U 21115AG  22157.83334491  .00010009  00000-0  64605-3 0  9995,2 49754  53.2123 177.6244 0008968   6.0124 330.1302 15.08820461  1303,6917.94,95.439,546.009,533.601,0.0
49754.0,STARLINK-3193,PAYLOAD,2022-06-07 08:49:27,15.08829658,0.0009098,53.2138,175.225,7.6536,352.4593,4.577100000000001e-05,4.38e-06,0.0,0 STARLINK-3193,1 49754U 21115AG  22158.36767866  .00000438  00000-0  45771-4 0  9999,2 49754  53.2138 175.2250 0009098   7.6536 352.4593 15.08829658 29765,6917.9119999999975,95.438,546.071,533.4830000000002,0.0
49754.0,STARLINK-3193,PAYLOAD,2022-06-07 18:21:46,15.08831078,0.0009136,53.2138,173.4408,8.84,351.2751,4.9414e-05,4.96e-06,0.0,0 STARLINK-3193,1 49754U 21115AG  22158.76512040  .00000496  00000-0  49414-4 0  9997,2 49754  53.2138 173.4408 0009136   8.8400 351.2751 15.08831078 28712,6917.908,95.438,546.0930000000002,533.452,0.0
49754.0,STARLINK-3193,PAYLOAD,2022-06-08 10:15:37,15.08834754,0.0009189,53.2138,170.467,10.7849,349.3339,5.5585e-05,5.94e-06,0.0,0 STARLINK-3193,1 49754U 21115AG  22159.42752122  .00000594  00000-0  55585-4 0  9993,2 49754  53.2138 170.4670 0009189  10.7849 349.3339 15.08834754 29925,6917.896,95.438,546.118,533.405,0.0
49754.0,STARLINK-3193,PAYLOAD,2022-06-08 18:12:33,15.08835802,0.0009219,53.2138,168.9801,11.7131,348.4074,5.0393e-05,5.11e-06,0.0,0 STARLINK-3193,1 49754U 21115AG  22159.75872190  .00000511  00000-0  50393-4 0  9998,2 49754  53.2138 168.9801 0009219  11.7131 348.4074 15.08835802 28865,6917.893,95.438,546.136,533.381,0.0
49754.0,STARLINK-3193,PAYLOAD,2022-06-09 10:06:24,15.08838913,0.0009302,53.2136,166.0064,13.5205,346.6034,5.2005e-05,5.37e-06,0.0,0 STARLINK-3193,1 49754U 21115AG  22160.42112121  .00000537  00000-0  52005-4 0  9995,2 49754  53.2136 166.0064 0009302  13.5205 346.6034 15.08838913 28961,6917.884,95.438,546.184,533.314,0.0
49754.0,STARLINK-3193,PAYLOAD,2022-06-10 06:46:25,15.08843114,0.000937,53.2135,162.1405,15.9011,344.2274,5.51e-05,5.86e-06,0.0,0 STARLINK-3193,1 49754U 21115AG  22161.28223804  .00000586  00000-0  55100-4 0  9994,2 49754  53.2135 162.1405 0009370  15.9011 344.2274 15.08843114 30201,6917.871,95.437,546.2180000000002,533.254,0.0
49754.0,STARLINK-3193,PAYLOAD,2022-06-10 09:57:11,15.08843738,0.0009387,53.2135,161.5457,16.2577,343.8714,5.2887e-05,5.51e-06,0.0,0 STARLINK-3193,1 49754U 21115AG  22161.41471759  .00000551  00000-0  52887-4 0  9994,2 49754  53.2135 161.5457 0009387  16.2577 343.8714 15.08843738 29114,6917.869000000002,95.437,546.2280000000002,533.24,0.0
49754.0,STARLINK-3193,PAYLOAD,2022-06-11 09:47:58,15.08839251,0.0009357,53.2136,157.0856,18.729,341.4044,-1.1248e-05,-4.71e-06,0.0,0 STARLINK-3193,1 49754U 21115AG  22162.40831922 -.00000471  00000-0 -11248-4 0  9995,2 49754  53.2136 157.0856 0009357  18.7290 341.4044 15.08839251 30379,6917.8830000000025,95.438,546.221,533.275,0.0
49754.0,STARLINK-3193,PAYLOAD,2022-06-11 16:09:31,15.08835173,0.0009472,53.2139,155.8955,19.7001,340.4356,-5.3125e-05,-1.138e-05,0.0,0 STARLINK-3193,1 49754U 21115AG  22162.67328399 -.00001138  00000-0 -53125-4 0  9994,2 49754  53.2139 155.8955 0009472  19.7001 340.4356 15.08835173 29302,6917.895,95.438,546.313,533.2080000000002,0.0
49754.0,STARLINK-3193,PAYLOAD,2022-06-12 09:38:46,15.08837518,0.0009475,53.2137,152.6244,21.6651,338.474,-4.3235e-05,-9.8e-06,0.0,0 STARLINK-3193,1 49754U 21115AG  22163.40192356 -.00000980  00000-0 -43235-4 0  9993,2 49754  53.2137 152.6244 0009475  21.6651 338.4740 15.08837518 29413,6917.888000000001,95.438,546.308,533.198,0.0
49754.0,STARLINK-3193,PAYLOAD,2022-06-12 16:00:18,15.08839702,0.0009479,53.2143,151.4348,22.5617,337.5791,-4.4336e-05,-9.98e-06,0.0,0 STARLINK-3193,1 49754U 21115AG  22163.66688269 -.00000998  00000-0 -44336-4 0  9996,2 49754  53.2143 151.4348 0009479  22.5617 337.5791 15.08839702 30569,6917.880999999999,95.438,546.304,533.189,0.0
49754.0,STARLINK-3193,PAYLOAD,2022-06-13 07:54:09,15.08843095,0.0009497,53.2141,148.4609,23.9207,336.2225,2.7679e-06,-2.48e-06,0.0,0 STARLINK-3193,1 49754U 21115AG  22164.32927924 -.00000248  00000-0  27679-5 0  9993,2 49754  53.2141 148.4609 0009497  23.9207 336.2225 15.08843095 29558,6917.871,95.437,546.306,533.1659999999998,0.0
49754.0,STARLINK-3193,PAYLOAD,2022-06-14 04:34:10,15.08845843,0.000957,53.2147,144.595,26.5721,333.576,0.00011239,1.5e-05,0.0,0 STARLINK-3193,1 49754U 21115AG  22165.19039432  .00001500  00000-0  11239-3 0  9991,2 49754  53.2147 144.5950 0009570  26.5721 333.5760 15.08845843 30797,6917.863,95.437,546.3480000000002,533.107,0.0
49754.0,STARLINK-3193,PAYLOAD,2022-06-14 07:44:56,15.08843527,0.000958,53.2147,144.0002,26.899,333.2497,9.03e-05,1.147e-05,0.0,0 STARLINK-3193,1 49754U 21115AG  22165.32287646  .00001147  00000-0  90300-4 0  9992,2 49754  53.2147 144.0002 0009580  26.8990 333.2497 15.08843527 29702,6917.87,95.437,546.362,533.107,0.0
49754.0,STARLINK-3193,PAYLOAD,2022-06-15 04:24:57,15.08839788,0.0009581,53.2148,140.1345,29.4624,330.6907,9.3522e-06,-1.43e-06,0.0,0 STARLINK-3193,1 49754U 21115AG  22166.18400183 -.00000143  00000-0  93522-5 0  9996,2 49754  53.2148 140.1345 0009581  29.4624 330.6907 15.08839788 30943,6917.880999999999,95.438,546.374,533.118,0.0
49754.0,STARLINK-3193,PAYLOAD,2022-06-15 06:00:20,15.08840615,0.0009603,53.2151,139.8374,29.7458,330.4078,1.4075e-05,-6.8e-07,0.0,0 STARLINK-3193,1 49754U 21115AG  22166.25024121 -.00000068  00000-0  14075-4 0  9999,2 49754  53.2151 139.8374 0009603  29.7458 330.4078 15.08840615 29842,6917.879,95.438,546.387,533.1,0.0
49754.0,STARLINK-3193,PAYLOAD,2022-06-15 15:32:40,15.08837838,0.0009661,53.2153,138.0532,30.4348,329.7203,-3.5443e-05,-8.56e-06,0.0,0 STARLINK-3193,1 49754U 21115AG  22166.64768521 -.00000856  00000-0 -35443-4 0  9999,2 49754  53.2153 138.0532 0009661  30.4348 329.7203 15.08837838 29903,6917.887,95.438,546.435,533.069,0.0
49754.0,STARLINK-3193,PAYLOAD,2022-06-19 06:58:52,15.08841969,0.0009569,53.2163,121.6976,39.9617,320.2078,7.231e-06,-1.77e-06,0.0,0 STARLINK-3193,1 49754U 21115AG  22170.29088684 -.00000177  00000-0  72310-5 0  9990,2 49754  53.2163 121.6976 0009569  39.9617 320.2078 15.08841969 30452,6917.874,95.437,546.359,533.12,0.0
49754.0,STARLINK-3193,PAYLOAD,2022-06-19 13:20:24,15.08839956,0.000959,53.2164,120.5083,40.602,319.5686,0.00013254,1.82e-05,0.0,0 STARLINK-3193,1 49754U 21115AG  22170.55584420  .00001820  00000-0  13254-3 0  9993,2 49754  53.2164 120.5083 0009590  40.6020 319.5686 15.08839956 31608,6917.880999999999,95.438,546.38,533.111,0.0
49754.0,STARLINK-3193,PAYLOAD,2022-06-20 06:49:39,15.08839339,0.0009558,53.2158,117.2378,43.25100000000001,316.9231,-2.2902e-05,-6.57e-06,0.0,0 STARLINK-3193,1 49754U 21115AG  22171.28449034 -.00000657  00000-0 -22902-4 0  9995,2 49754  53.2158 117.2378 0009558  43.2510 316.9231 15.08839339 30609,6917.882,95.438,546.36,533.135,0.0
